INMARSAT 4-F2           
1 28899U 05044A   26064.78794816 -.00000265  00000+0  00000+0 0  9999
2 28899   4.9600  43.8087 0002714 323.6628 223.1994  1.00271238 74488
GSAT-8                  
1 37605U 11022A   26064.66545506  .00000078  00000+0  00000+0 0  9995
2 37605   1.8635  83.1416 0007236 215.9334 158.9326  1.00272891 52184
LUCH-5A                 
1 37951U 11074B   26064.33107759 -.00000052  00000+0  00000+0 0  9997
2 37951   8.4896  75.3325 0003934 246.3674 127.6589  1.00275722 52010
SES-5                   
1 38652U 12036A   26064.65548836  .00000026  00000+0  00000+0 0  9995
2 38652   0.0592 310.9020 0002126  30.0969  63.3269  1.00270058 43419
GSAT-10                 
1 38779U 12051B   26064.72197517 -.00000172  00000+0  00000+0 0  9999
2 38779   0.0703 262.6631 0004412 176.7594  66.9102  1.00273422 49066
LUCH-5B                 
1 38977U 12061A   26064.56567874 -.00000141  00000+0  00000+0 0  9995
2 38977  10.2612  50.8943 0004162 224.5827  75.1508  1.00271642 48562
ASTRA 5B                
1 39617U 14011B   26064.71620332  .00000130  00000+0  00000+0 0  9997
2 39617   0.0882 299.9851 0004072  27.9454 116.8177  1.00271717 43636
LUCH-5V                 
1 39727U 14023A   26064.60201479 -.00000274  00000+0  00000+0 0  9997
2 39727   4.8780  70.7644 0003060 282.1419 121.8839  1.00271530 43324
GSAT-15                 
1 41028U 15065A   26064.67308177 -.00000264  00000+0  00000+0 0  9990
2 41028   0.0865 269.7496 0001175 105.4832 123.9496  1.00270716 37767
EUTELSAT 117 WEST B     
1 41589U 16038B   26064.63139493 -.00000019  00000+0  00000+0 0  9990
2 41589   0.0191 305.9450 0000326 291.7627  35.9665  1.00274096 35620
SES-15                  
1 42709U 17026A   26064.01780892  .00000050  00000+0  00000+0 0  9994
2 42709   0.0426 307.9199 0000713  39.5952  52.4724  1.00271060  6386
QZS-2 (MICHIBIKI-2)     
1 42738U 17028A   26064.73548161 -.00000170  00000+0  00000+0 0  9992
2 42738  39.5883 244.6601 0745487 270.3415  54.7958  1.00261653  6583
QZS-3 (MICHIBIKI-3)     
1 42917U 17048A   26064.73829411 -.00000355  00000+0  00000+0 0  9998
2 42917   0.0697 214.4992 0002288 143.6382 198.1087  1.00275676 31221
QZS-4 (MICHIBIKI-4)     
1 42965U 17062A   26064.74126169 -.00000341  00000+0  00000+0 0  9993
2 42965  40.1722 344.8064 0748495 269.9150 316.0784  1.00280691 30764
BEIDOU-3 G1             
1 43683U 18085A   26064.77689770 -.00000284  00000+0  00000+0 0  9998
2 43683   2.8141 100.3490 0001427  19.8600 103.0000  1.00268249 27024
EUTELSAT 5 WEST B       
1 44624U 19067A   26064.65358169 -.00000049  00000+0  00000+0 0  9996
2 44624   0.0925 311.8541 0003208  43.0402  38.7482  1.00272905 23392
BEIDOU-3 G2             
1 45344U 20017A   26064.81304906 -.00000145  00000+0  00000+0 0  9998
2 45344   2.6571  45.6818 0002799 312.9867 177.5975  1.00271514 22228
